satname,norad_id,inclination_deg,eccentricity,mean_motion_rev_per_day,perigee_km,apogee_km,l1,l2
STARLINK-1394,45679,53.0541,0.0001085,15.06403456,546.4495666469929,547.9523649855746,1 45679U 20035Y   25273.68081595  .00002380  00000+0  17856-3 0  9994,2 45679  53.0541  54.9221 0001085  84.1120 275.9992 15.06403456294758
STARLINK-1402,45685,53.0538,0.0001414,15.06394313,546.2497410783553,548.2082345797126,1 45685U 20035AE  25273.71158583  .00000154  00000+0  29266-4 0  9993,2 45685  53.0538  49.2078 0001414 106.7635 253.3509 15.06394313294841
STARLINK-1404,45686,53.0562,0.0001595,15.06402764,546.0984949454923,548.307678433147,1 45686U 20035AF  25273.64027253 -.00001423  00000+0 -76628-4 0  9991,2 45686  53.0562  55.1127 0001595  76.7638 283.3529 15.06402764294754
STARLINK-1413,45689,53.0554,0.0001386,15.06399874,546.2520907465032,548.1717974738112,1 45689U 20035AJ  25273.65869534  .00000902  00000+0  79413-4 0  9995,2 45689  53.0554  55.0219 0001386  83.5602 276.5545 15.06399874294663
STARLINK-1417,45693,53.0543,0.0001347,15.06392523,546.3016264236348,548.1673214987213,1 45693U 20035AN  25273.65502510  .00001249  00000+0  10277-3 0  9995,2 45693  53.0543  55.0467 0001347  84.8655 275.2488 15.06392523294745
STARLINK-1420,45695,53.055,0.0001121,15.06401618,546.4302679883021,547.9829300231977,1 45695U 20035AQ  25273.72225563  .00003619  00000+0  26171-3 0  9998,2 45695  53.0550  34.7307 0001121  93.5662 266.5455 15.06401618295044
STARLINK-1422,45696,53.0532,0.0001396,15.06405729,546.2272232265304,548.1607756415733,1 45696U 20035AR  25273.66608351  .00005883  00000+0  41341-3 0  9993,2 45696  53.0532  54.9928 0001396 104.7159 255.3985 15.06405729294745
STARLINK-1351,45697,53.0571,0.0001585,15.06394425,546.1309741083633,548.326315017689,1 45697U 20035AS  25273.64210817  .00001662  00000+0  13049-3 0  9993,2 45697  53.0571  35.1000 0001585 101.8243 258.2924 15.06394425295031
STARLINK-1398,45699,53.0536,0.0002318,15.44420981,431.501096306145,434.6587764778551,1 45699U 20035AU  25273.57293664  .00051212  00000+0  10921-2 0  9999,2 45699  53.0536   4.0118 0002318 200.2025 159.8889 15.44420981295468
STARLINK-1400,45700,53.0556,0.0001611,15.06392158,546.1199151184146,548.3512701677637,1 45700U 20035AV  25273.74899654  .00017944  00000+0  12207-2 0  9995,2 45700  53.0556  34.6220 0001611 104.0767 256.0401 15.06392158295041
STARLINK-1403,45701,53.0564,0.0001399,15.0640493,546.2275940901263,548.1653023889439,1 45701U 20035AW  25273.71214429 -.00001423  00000+0 -76611-4 0  9992,2 45701  53.0564  34.7860 0001399  96.6861 263.4287 15.06404930295031
STARLINK-1407,45703,53.0441,0.0008849,15.35971863,451.9859879167352,464.0846456830068,1 45703U 20035AY  25273.49618880  .00048921  00000+0  13772-2 0  9997,2 45703  53.0441   1.3726 0008849 289.8995  70.1053 15.35971863295499
STARLINK-1411,45706,53.0559,0.0001182,15.31509469,470.4984127026837,472.11762150472714,1 45706U 20035BB  25273.91668980  .00119497  00000+0  38236-2 0  9992,2 45706  53.0559  26.0382 0001182  25.7110 319.0659 15.31509469  5742
STARLINK-1423,45710,53.0547,0.0001408,15.06398682,546.2405077756785,548.1906870671128,1 45710U 20035BF  25273.60524527  .00000983  00000+0  84911-4 0  9993,2 45710  53.0547  35.2681 0001408  97.7509 262.3640 15.06398682295027
STARLINK-1433,45711,53.0536,0.0001422,15.06351218,546.3762659513586,548.345877602972,1 45711U 20035BG  25273.71950900  .00014123  00000+0  96640-3 0  9996,2 45711  53.0536  34.7521 0001422  99.5438 260.5711 15.06351218295034
STARLINK-1434,45712,53.0538,8.12e-05,15.1263009,527.6220029757096,528.7435893106021,1 45712U 20035BH  25273.63971394  .00084917  00000+0  47643-2 0  9994,2 45712  53.0538  32.9208 0000812 140.7309 219.3742 15.12630090295061
STARLINK-1465,45731,53.0527,0.0001266,15.06412923,546.2952069744697,548.048695200885,1 45731U 20038B   25273.08921349  .00004347  00000+0  31042-3 0  9998,2 45731  53.0527 237.5820 0001266  91.3403 268.7731 15.06412923291982
STARLINK-1471,45735,53.0514,0.0003871,15.39254742,445.6693433685805,450.95438007732537,1 45735U 20038F   25273.46923323  .00040266  00000+0  10232-2 0  9995,2 45735  53.0514 183.5397 0003871  90.7404 269.4043 15.39254742292781
STARLINK-1474,45738,53.0383,0.0005901,15.61844959,378.33853244478087,386.31723309942845,1 45738U 20038J   25273.79541590  .00091377  00000+0  10276-2 0  9993,2 45738  53.0383 144.7418 0005901 151.9359 208.1973 15.61844959293352
STARLINK-1475,45739,53.0532,0.0006466,15.62827026,375.1259557899648,383.8649260625716,1 45739U 20038K   25273.91668980  .00230932  00000+0  24483-2 0  9998,2 45739  53.0532 111.8584 0006466 125.7299 303.9463 15.62827026  5926
STARLINK-1480,45741,53.0536,0.0001875,15.06403985,545.900843949551,548.497845078743,1 45741U 20038M   25273.60155546  .00000540  00000+0  55152-4 0  9995,2 45741  53.0536 235.2805 0001875  83.9222 276.1980 15.06403985292071
STARLINK-1500,45744,53.0381,0.0005442,15.25825254,484.5717521059796,492.0451913574125,1 45744U 20038Q   25273.27283032  .00036373  00000+0  14093-2 0  9993,2 45744  53.0381 220.0505 0005442  98.7100 261.4514 15.25825254292252
STARLINK-1504,45746,53.0283,0.0006641,15.35862658,453.81924561949654,462.8994800886394,1 45746U 20038S   25273.18485984  .00051928  00000+0  14665-2 0  9993,2 45746  53.0283 187.6130 0006641  73.4540 286.7190 15.35862658292695
STARLINK-1506,45747,53.052,0.0004977,15.19941369,502.59139956627223,509.4438870982449,1 45747U 20038T   25273.56675300  .00016710  00000+0  78038-3 0  9994,2 45747  53.0520 219.8501 0004977 117.5726 242.5775 15.19941369292289
STARLINK-1464,45751,53.0547,0.0002231,15.06376488,545.7385584289468,548.8286811094877,1 45751U 20038X   25273.07264577  .00011321  00000+0  77821-3 0  9997,2 45751  53.0547 217.6508 0002231 112.4529 247.6697 15.06376488292270
STARLINK-1477,45754,53.0538,0.000113,15.06425738,546.3501203249971,547.9152312717279,1 45754U 20038AA  25273.08736869  .00015699  00000+0  10697-2 0  9998,2 45754  53.0538 217.5923 0001130  84.3966 275.7152 15.06425738292273
STARLINK-1478,45755,53.0548,0.000174,15.06401598,546.0016505058684,548.4116700996537,1 45755U 20038AB  25273.57023587  .00001927  00000+0  14822-3 0  9993,2 45755  53.0548 215.4253 0001740  74.6919 285.4263 15.06401598292331
STARLINK-1484,45756,53.0171,0.0005334,15.54917055,398.77701586371586,406.01048606884615,1 45756U 20038AC  25273.84894565  .00093787  00000+0  13684-2 0  9995,2 45756  53.0171 131.1033 0005334 126.8195 233.3304 15.54917055293548
